[Satellite]
VERSION=1.1
NAME=MOLNIYA 2-10
NICKNAME=MOLNIYA 2-10
TLE1=1 07376U 74056A   19314.79240451  .00001161  00000-0  00000+0 0  9993
TLE2=2 07376  63.5075 191.2720 6818331 293.6933  11.3164  2.01173527331302
STATUS=0
